LANDSAT 8               
1 39084U 13008A   26063.16688196  .00000551  00000+0  13221-3 0  9990
2 39084  98.1928 134.9829 0001229  90.8123 269.3217 14.57125215682601
SARAL                   
1 39086U 13009A   26063.15421964  .00000187  00000+0  84479-4 0  9999
2 39086  98.5552 251.0396 0001158 199.3598 160.7542 14.32826330680569
GAOFEN-1                
1 39150U 13018A   26063.22673630  .00000751  00000+0  11482-3 0  9998
2 39150  97.9191 137.3888 0016165 243.2493 116.7063 14.76534462692755
VNREDSAT 1              
1 39160U 13021B   26063.17244992  .00000531  00000+0  10747-3 0  9991
2 39160  97.9230 120.5448 0001602  89.8289 270.3098 14.65062954684917
ARIRANG-5 (KOMPSAT-5)   
1 39227U 13042A   26063.14939409  .00001519  00000+0  11282-3 0  9991
2 39227  97.6174 251.3097 0003822 124.3507 235.8081 15.04514559688067
SKYSAT-A                
1 39418U 13066C   26063.07764377  .00005329  00000+0  30990-3 0  9991
2 39418  97.3964 115.7952 0020541 321.1305  38.8448 15.12304975672593
DUBAISAT-2              
1 39419U 13066D   26063.22061237  .00008290  00000+0  52297-3 0  9998
2 39419  97.4524  56.2067 0012848  41.8662 318.3547 15.09287364670554
GPM-CORE                
1 39574U 14009C   26063.14221693  .00015183  00000+0  32831-3 0  9994
2 39574  64.9735 300.0694 0012445 264.5865  95.3856 15.44610484681589
SENTINEL-1A             
1 39634U 14016A   26063.17894456  .00000315  00000+0  76463-4 0  9996
2 39634  98.1814  72.2289 0001371  86.9200 273.2157 14.59195106634703
KAZEOSAT 1              
1 39731U 14024A   26063.17990521  .00000078  00000+0  36674-4 0  9999
2 39731  98.3299 138.2065 0001045  82.0783 278.0525 14.42031434623420
ALOS-2                  
1 39766U 14029A   26063.24063209  .00003246  00000+0  44123-3 0  9991
2 39766  97.9205 161.9169 0001506 100.1773 259.9609 14.79479069636066
KAZEOSAT 2              
1 40010U 14033A   26063.14323411  .00001236  00000+0  14957-3 0  9992
2 40010  97.5486 268.2533 0007579 314.8166  45.2433 14.85327908633361
HODOYOSHI-4             
1 40011U 14033B   26063.19701851  .00001128  00000+0  12864-3 0  9991
2 40011  97.5437 253.0955 0022537 295.3226  64.5657 14.87815653633193
DEIMOS-2                
1 40013U 14033D   26063.13448462  .00004189  00000+0  40426-3 0  9998
2 40013  97.5989 301.2404 0001269  57.5105 302.6237 14.93381536622042
HODOYOSHI-3             
1 40015U 14033F   26063.02109340  .00001804  00000+0  21510-3 0  9991
2 40015  97.6291 230.3740 0032520 343.3245  16.6898 14.85118443632010
SPOT 7                  
1 40053U 14034A   26063.18440788  .00000486  00000+0  10877-3 0  9994
2 40053  98.0761 128.3325 0001272 102.3246 257.8097 14.60852953621807
SKYSAT-B                
1 40072U 14037D   26062.81083700  .00002796  00000+0  31362-3 0  9992
2 40072  98.3720  15.8691 0004201 258.6689 101.4054 14.87697185630296
