[{"OBJECT_NAME":"LANDSAT 8","OBJECT_ID":"2013-008A","EPOCH":"2026-03-04T04:00:18.601344","MEAN_MOTION":14.57125215,"ECCENTRICITY":0.0001229,"INCLINATION":98.1928,"RA_OF_ASC_NODE":134.9829,"ARG_OF_PERICENTER":90.8123,"MEAN_ANOMALY":269.3217,"EPHEMERIS_TYPE":0,"CLASSIFICATION_TYPE":"U","NORAD_CAT_ID":39084,"ELEMENT_SET_NO":999,"REV_AT_EPOCH":68260,"BSTAR":0.00013221,"MEAN_MOTION_DOT":5.51e-6,"MEAN_MOTION_DDOT":0},{"OBJECT_NAME":"SARAL","OBJECT_ID":"2013-009A","EPOCH":"2026-03-04T03:42:04.576896","MEAN_MOTION":14.3282633,"ECCENTRICITY":0.0001158,"INCLINATION":98.5552,"RA_OF_ASC_NODE":251.0396,"ARG_OF_PERICENTER":199.3598,"MEAN_ANOMALY":160.7542,"EPHEMERIS_TYPE":0,"CLASSIFICATION_TYPE":"U","NORAD_CAT_ID":39086,"ELEMENT_SET_NO":999,"REV_AT_EPOCH":68056,"BSTAR":8.4479e-5,"MEAN_MOTION_DOT":1.87e-6,"MEAN_MOTION_DDOT":0},{"OBJECT_NAME":"GAOFEN-1","OBJECT_ID":"2013-018A","EPOCH":"2026-03-04T05:26:30.016320","MEAN_MOTION":14.76534462,"ECCENTRICITY":0.0016165,"INCLINATION":97.9191,"RA_OF_ASC_NODE":137.3888,"ARG_OF_PERICENTER":243.2493,"MEAN_ANOMALY":116.7063,"EPHEMERIS_TYPE":0,"CLASSIFICATION_TYPE":"U","NORAD_CAT_ID":39150,"ELEMENT_SET_NO":999,"REV_AT_EPOCH":69275,"BSTAR":0.00011482,"MEAN_MOTION_DOT":7.51e-6,"MEAN_MOTION_DDOT":0},{"OBJECT_NAME":"VNREDSAT 1","OBJECT_ID":"2013-021B","EPOCH":"2026-03-04T04:08:19.673088","MEAN_MOTION":14.65062954,"ECCENTRICITY":0.0001602,"INCLINATION":97.923,"RA_OF_ASC_NODE":120.5448,"ARG_OF_PERICENTER":89.8289,"MEAN_ANOMALY":270.3098,"EPHEMERIS_TYPE":0,"CLASSIFICATION_TYPE":"U","NORAD_CAT_ID":39160,"ELEMENT_SET_NO":999,"REV_AT_EPOCH":68491,"BSTAR":0.00010747,"MEAN_MOTION_DOT":5.31e-6,"MEAN_MOTION_DDOT":0},{"OBJECT_NAME":"ARIRANG-5 (KOMPSAT-5)","OBJECT_ID":"2013-042A","EPOCH":"2026-03-04T03:35:07.649376","MEAN_MOTION":15.04514559,"ECCENTRICITY":0.0003822,"INCLINATION":97.6174,"RA_OF_ASC_NODE":251.3097,"ARG_OF_PERICENTER":124.3507,"MEAN_ANOMALY":235.8081,"EPHEMERIS_TYPE":0,"CLASSIFICATION_TYPE":"U","NORAD_CAT_ID":39227,"ELEMENT_SET_NO":999,"REV_AT_EPOCH":68806,"BSTAR":0.00011282,"MEAN_MOTION_DOT":1.519e-5,"MEAN_MOTION_DDOT":0},{"OBJECT_NAME":"SKYSAT-A","OBJECT_ID":"2013-066C","EPOCH":"2026-03-04T01:51:48.421728","MEAN_MOTION":15.12304975,"ECCENTRICITY":0.0020541,"INCLINATION":97.3964,"RA_OF_ASC_NODE":115.7952,"ARG_OF_PERICENTER":321.1305,"MEAN_ANOMALY":38.8448,"EPHEMERIS_TYPE":0,"CLASSIFICATION_TYPE":"U","NORAD_CAT_ID":39418,"ELEMENT_SET_NO":999,"REV_AT_EPOCH":67259,"BSTAR":0.0003099,"MEAN_MOTION_DOT":5.329e-5,"MEAN_MOTION_DDOT":0},{"OBJECT_NAME":"DUBAISAT-2","OBJECT_ID":"2013-066D","EPOCH":"2026-03-04T05:17:40.908768","MEAN_MOTION":15.09287364,"ECCENTRICITY":0.0012848,"INCLINATION":97.4524,"RA_OF_ASC_NODE":56.2067,"ARG_OF_PERICENTER":41.8662,"MEAN_ANOMALY":318.3547,"EPHEMERIS_TYPE":0,"CLASSIFICATION_TYPE":"U","NORAD_CAT_ID":39419,"ELEMENT_SET_NO":999,"REV_AT_EPOCH":67055,"BSTAR":0.00052297,"MEAN_MOTION_DOT":8.29e-5,"MEAN_MOTION_DDOT":0},{"OBJECT_NAME":"GPM-CORE","OBJECT_ID":"2014-009C","EPOCH":"2026-03-04T03:24:47.542752","MEAN_MOTION":15.44610484,"ECCENTRICITY":0.0012445,"INCLINATION":64.9735,"RA_OF_ASC_NODE":300.0694,"ARG_OF_PERICENTER":264.5865,"MEAN_ANOMALY":95.3856,"EPHEMERIS_TYPE":0,"CLASSIFICATION_TYPE":"U","NORAD_CAT_ID":39574,"ELEMENT_SET_NO":999,"REV_AT_EPOCH":68158,"BSTAR":0.00032831,"MEAN_MOTION_DOT":0.00015183,"MEAN_MOTION_DDOT":0},{"OBJECT_NAME":"SENTINEL-1A","OBJECT_ID":"2014-016A","EPOCH":"2026-03-04T04:17:40.809984","MEAN_MOTION":14.59195106,"ECCENTRICITY":0.0001371,"INCLINATION":98.1814,"RA_OF_ASC_NODE":72.2289,"ARG_OF_PERICENTER":86.92,"MEAN_ANOMALY":273.2157,"EPHEMERIS_TYPE":0,"CLASSIFICATION_TYPE":"U","NORAD_CAT_ID":39634,"ELEMENT_SET_NO":999,"REV_AT_EPOCH":63470,"BSTAR":7.6463e-5,"MEAN_MOTION_DOT":3.15e-6,"MEAN_MOTION_DDOT":0},{"OBJECT_NAME":"KAZEOSAT 1","OBJECT_ID":"2014-024A","EPOCH":"2026-03-04T04:19:03.810144","MEAN_MOTION":14.42031434,"ECCENTRICITY":0.0001045,"INCLINATION":98.3299,"RA_OF_ASC_NODE":138.2065,"ARG_OF_PERICENTER":82.0783,"MEAN_ANOMALY":278.0525,"EPHEMERIS_TYPE":0,"CLASSIFICATION_TYPE":"U","NORAD_CAT_ID":39731,"ELEMENT_SET_NO":999,"REV_AT_EPOCH":62342,"BSTAR":3.6674e-5,"MEAN_MOTION_DOT":7.8e-7,"MEAN_MOTION_DDOT":0},{"OBJECT_NAME":"ALOS-2","OBJECT_ID":"2014-029A","EPOCH":"2026-03-04T05:46:30.612576","MEAN_MOTION":14.79479069,"ECCENTRICITY":0.0001506,"INCLINATION":97.9205,"RA_OF_ASC_NODE":161.9169,"ARG_OF_PERICENTER":100.1773,"MEAN_ANOMALY":259.9609,"EPHEMERIS_TYPE":0,"CLASSIFICATION_TYPE":"U","NORAD_CAT_ID":39766,"ELEMENT_SET_NO":999,"REV_AT_EPOCH":63606,"BSTAR":0.00044123,"MEAN_MOTION_DOT":3.246e-5,"MEAN_MOTION_DDOT":0},{"OBJECT_NAME":"KAZEOSAT 2","OBJECT_ID":"2014-033A","EPOCH":"2026-03-04T03:26:15.427104","MEAN_MOTION":14.85327908,"ECCENTRICITY":0.0007579,"INCLINATION":97.5486,"RA_OF_ASC_NODE":268.2533,"ARG_OF_PERICENTER":314.8166,"MEAN_ANOMALY":45.2433,"EPHEMERIS_TYPE":0,"CLASSIFICATION_TYPE":"U","NORAD_CAT_ID":40010,"ELEMENT_SET_NO":999,"REV_AT_EPOCH":63336,"BSTAR":0.00014957,"MEAN_MOTION_DOT":1.236e-5,"MEAN_MOTION_DDOT":0},{"OBJECT_NAME":"HODOYOSHI-4","OBJECT_ID":"2014-033B","EPOCH":"2026-03-04T04:43:42.399264","MEAN_MOTION":14.87815653,"ECCENTRICITY":0.0022537,"INCLINATION":97.5437,"RA_OF_ASC_NODE":253.0955,"ARG_OF_PERICENTER":295.3226,"MEAN_ANOMALY":64.5657,"EPHEMERIS_TYPE":0,"CLASSIFICATION_TYPE":"U","NORAD_CAT_ID":40011,"ELEMENT_SET_NO":999,"REV_AT_EPOCH":63319,"BSTAR":0.00012864,"MEAN_MOTION_DOT":1.128e-5,"MEAN_MOTION_DDOT":0},{"OBJECT_NAME":"DEIMOS-2","OBJECT_ID":"2014-033D","EPOCH":"2026-03-04T03:13:39.471168","MEAN_MOTION":14.93381536,"ECCENTRICITY":0.0001269,"INCLINATION":97.5989,"RA_OF_ASC_NODE":301.2404,"ARG_OF_PERICENTER":57.5105,"MEAN_ANOMALY":302.6237,"EPHEMERIS_TYPE":0,"CLASSIFICATION_TYPE":"U","NORAD_CAT_ID":40013,"ELEMENT_SET_NO":999,"REV_AT_EPOCH":62204,"BSTAR":0.00040426,"MEAN_MOTION_DOT":4.189e-5,"MEAN_MOTION_DDOT":0},{"OBJECT_NAME":"HODOYOSHI-3","OBJECT_ID":"2014-033F","EPOCH":"2026-03-04T00:30:22.469760","MEAN_MOTION":14.85118443,"ECCENTRICITY":0.003252,"INCLINATION":97.6291,"RA_OF_ASC_NODE":230.374,"ARG_OF_PERICENTER":343.3245,"MEAN_ANOMALY":16.6898,"EPHEMERIS_TYPE":0,"CLASSIFICATION_TYPE":"U","NORAD_CAT_ID":40015,"ELEMENT_SET_NO":999,"REV_AT_EPOCH":63201,"BSTAR":0.0002151,"MEAN_MOTION_DOT":1.804e-5,"MEAN_MOTION_DDOT":0},{"OBJECT_NAME":"SPOT 7","OBJECT_ID":"2014-034A","EPOCH":"2026-03-04T04:25:32.840832","MEAN_MOTION":14.60852953,"ECCENTRICITY":0.0001272,"INCLINATION":98.0761,"RA_OF_ASC_NODE":128.3325,"ARG_OF_PERICENTER":102.3246,"MEAN_ANOMALY":257.8097,"EPHEMERIS_TYPE":0,"CLASSIFICATION_TYPE":"U","NORAD_CAT_ID":40053,"ELEMENT_SET_NO":999,"REV_AT_EPOCH":62180,"BSTAR":0.00010877,"MEAN_MOTION_DOT":4.86e-6,"MEAN_MOTION_DDOT":0},{"OBJECT_NAME":"SKYSAT-B","OBJECT_ID":"2014-037D","EPOCH":"2026-03-03T19:27:36.316800","MEAN_MOTION":14.87697185,"ECCENTRICITY":0.00042017,"INCLINATION":98.372,"RA_OF_ASC_NODE":15.8691,"ARG_OF_PERICENTER":258.6689,"MEAN_ANOMALY":101.4054,"EPHEMERIS_TYPE":0,"CLASSIFICATION_TYPE":"U","NORAD_CAT_ID":40072,"ELEMENT_SET_NO":999,"REV_AT_EPOCH":63029,"BSTAR":0.00031362475,"MEAN_MOTION_DOT":2.796e-5,"MEAN_MOTION_DDOT":0}]
